ONEWEB-0358             
1 49284U 21090F   25320.37959236  .00000103  00000+0  22058-3 0  9998
2 49284  87.9188 316.8757 0001712  89.9968 270.1362 13.20773176202469
ONEWEB-0359             
1 49285U 21090G   25320.75521523 -.00000065  00000+0 -19148-3 0  9990
2 49285  87.9180 316.8019 0001624  77.1731 282.9583 13.20770385202490
ONEWEB-0360             
1 49286U 21090H   25320.36697785  .00000009  00000+0 -92016-5 0  9996
2 49286  87.9177 316.8884 0001817  85.7870 274.3471 13.20770926201750
ONEWEB-0361             
1 49287U 21090J   25320.42378839  .00000058  00000+0  10982-3 0  9993
2 49287  87.9178 316.8724 0001703  93.2229 266.9100 13.20770996202216
ONEWEB-0362             
1 49288U 21090K   25320.35948597  .00000118  00000+0  26333-3 0  9994
2 49288  87.9208 347.3361 0002031  88.9462 271.1904 13.19727103198845
ONEWEB-0363             
1 49289U 21090L   25320.43954902  .00000008  00000+0 -11647-4 0  9993
2 49289  87.9182 316.8660 0001521  97.6474 262.4832 13.20773076202226
ONEWEB-0364             
1 49290U 21090M   25320.47744115  .00000102  00000+0  21926-3 0  9996
2 49290  87.9175 316.8837 0001729  93.1741 266.9590 13.20774794203368
ONEWEB-0365             
1 49291U 21090N   25320.44477785  .00000052  00000+0  97618-4 0  9996
2 49291  87.9223 347.2802 0001955  95.0758 265.0598 13.19727496198369
ONEWEB-0366             
1 49292U 21090P   25320.45831934 -.00000153  00000+0 -44709-3 0  9994
2 49292  87.8981 332.1026 0001755  92.8631 267.2700 13.14501533199619
ONEWEB-0367             
1 49293U 21090Q   25320.43798370 -.00000001  00000+0 -34207-4 0  9994
2 49293  87.9187 316.8648 0002017  87.3048 272.8317 13.20773139201745
ONEWEB-0368             
1 49294U 21090R   25320.48689987  .00001194  00000+0  29048-2 0  9990
2 49294  87.9179 316.8869 0002131 112.6873 247.4486 13.20783754202905
ONEWEB-0369             
1 49295U 21090S   25320.51586289  .00000062  00000+0  12262-3 0  9990
2 49295  87.9217 347.2956 0001921  96.1020 264.0332 13.19726806198362
ONEWEB-0370             
1 49296U 21090T   25320.75048185  .00000029  00000+0  40591-4 0  9995
2 49296  87.9179 316.8091 0001889  79.4746 280.6600 13.20773341201820
ONEWEB-0371             
1 49297U 21090U   25320.82711567 -.00005667  00000+0 -14199-1 0  9992
2 49297  87.9205 347.2236 0002374  87.0785 273.0619 13.19708805198448
ONEWEB-0372             
1 49298U 21090V   25320.43627897  .00000066  00000+0  13020-3 0  9992
2 49298  87.9178 316.8724 0001929  90.9651 269.1704 13.20772816201757
ONEWEB-0373             
1 49299U 21090W   25320.46324823  .00000051  00000+0  93020-4 0  9992
2 49299  87.9177 316.8807 0001761  88.3317 271.8018 13.20772397202947
ONEWEB-0374             
1 49300U 21090X   25320.44564317 -.00000163  00000+0 -47506-3 0  9990
2 49300  87.8990 332.0820 0001573 109.2537 250.8763 13.14502542199614
