[{"OBJECT_NAME":"ONEWEB-0358","OBJECT_ID":"2021-090F","EPOCH":"2025-11-16T09:06:36.779904","MEAN_MOTION":13.20773176,"ECCENTRICITY":0.00017125,"INCLINATION":87.9188,"RA_OF_ASC_NODE":316.8757,"ARG_OF_PERICENTER":89.9968,"MEAN_ANOMALY":270.1362,"EPHEMERIS_TYPE":0,"CLASSIFICATION_TYPE":"U","NORAD_CAT_ID":49284,"ELEMENT_SET_NO":999,"REV_AT_EPOCH":20246,"BSTAR":0.00022057573,"MEAN_MOTION_DOT":1.03e-6,"MEAN_MOTION_DDOT":0},{"OBJECT_NAME":"ONEWEB-0359","OBJECT_ID":"2021-090G","EPOCH":"2025-11-16T18:07:30.595872","MEAN_MOTION":13.20770385,"ECCENTRICITY":0.0001624,"INCLINATION":87.918,"RA_OF_ASC_NODE":316.8019,"ARG_OF_PERICENTER":77.1731,"MEAN_ANOMALY":282.9583,"EPHEMERIS_TYPE":0,"CLASSIFICATION_TYPE":"U","NORAD_CAT_ID":49285,"ELEMENT_SET_NO":999,"REV_AT_EPOCH":20249,"BSTAR":-0.00019148,"MEAN_MOTION_DOT":-6.5e-7,"MEAN_MOTION_DDOT":0},{"OBJECT_NAME":"ONEWEB-0360","OBJECT_ID":"2021-090H","EPOCH":"2025-11-16T08:48:26.886240","MEAN_MOTION":13.20770926,"ECCENTRICITY":0.00018173,"INCLINATION":87.9177,"RA_OF_ASC_NODE":316.8884,"ARG_OF_PERICENTER":85.787,"MEAN_ANOMALY":274.3471,"EPHEMERIS_TYPE":0,"CLASSIFICATION_TYPE":"U","NORAD_CAT_ID":49286,"ELEMENT_SET_NO":999,"REV_AT_EPOCH":20175,"BSTAR":-9.201566e-6,"MEAN_MOTION_DOT":9.0e-8,"MEAN_MOTION_DDOT":0},{"OBJECT_NAME":"ONEWEB-0361","OBJECT_ID":"2021-090J","EPOCH":"2025-11-16T10:10:15.316896","MEAN_MOTION":13.20770996,"ECCENTRICITY":0.00017033,"INCLINATION":87.9178,"RA_OF_ASC_NODE":316.8724,"ARG_OF_PERICENTER":93.2229,"MEAN_ANOMALY":266.91,"EPHEMERIS_TYPE":0,"CLASSIFICATION_TYPE":"U","NORAD_CAT_ID":49287,"ELEMENT_SET_NO":999,"REV_AT_EPOCH":20221,"BSTAR":0.00010981625,"MEAN_MOTION_DOT":5.8e-7,"MEAN_MOTION_DDOT":0},{"OBJECT_NAME":"ONEWEB-0362","OBJECT_ID":"2021-090K","EPOCH":"2025-11-16T08:37:39.587808","MEAN_MOTION":13.19727103,"ECCENTRICITY":0.00020317,"INCLINATION":87.9208,"RA_OF_ASC_NODE":347.3361,"ARG_OF_PERICENTER":88.9462,"MEAN_ANOMALY":271.1904,"EPHEMERIS_TYPE":0,"CLASSIFICATION_TYPE":"U","NORAD_CAT_ID":49288,"ELEMENT_SET_NO":999,"REV_AT_EPOCH":19884,"BSTAR":0.00026333411,"MEAN_MOTION_DOT":1.18e-6,"MEAN_MOTION_DDOT":0},{"OBJECT_NAME":"ONEWEB-0363","OBJECT_ID":"2021-090L","EPOCH":"2025-11-16T10:32:57.035328","MEAN_MOTION":13.20773076,"ECCENTRICITY":0.00015219,"INCLINATION":87.9182,"RA_OF_ASC_NODE":316.866,"ARG_OF_PERICENTER":97.6474,"MEAN_ANOMALY":262.4832,"EPHEMERIS_TYPE":0,"CLASSIFICATION_TYPE":"U","NORAD_CAT_ID":49289,"ELEMENT_SET_NO":999,"REV_AT_EPOCH":20222,"BSTAR":-1.1647071e-5,"MEAN_MOTION_DOT":8.0e-8,"MEAN_MOTION_DDOT":0},{"OBJECT_NAME":"ONEWEB-0364","OBJECT_ID":"2021-090M","EPOCH":"2025-11-16T11:27:30.915360","MEAN_MOTION":13.20774794,"ECCENTRICITY":0.00017293,"INCLINATION":87.9175,"RA_OF_ASC_NODE":316.8837,"ARG_OF_PERICENTER":93.1741,"MEAN_ANOMALY":266.959,"EPHEMERIS_TYPE":0,"CLASSIFICATION_TYPE":"U","NORAD_CAT_ID":49290,"ELEMENT_SET_NO":999,"REV_AT_EPOCH":20336,"BSTAR":0.00021926212,"MEAN_MOTION_DOT":1.02e-6,"MEAN_MOTION_DDOT":0},{"OBJECT_NAME":"ONEWEB-0365","OBJECT_ID":"2021-090N","EPOCH":"2025-11-16T10:40:28.806240","MEAN_MOTION":13.19727496,"ECCENTRICITY":0.00019553,"INCLINATION":87.9223,"RA_OF_ASC_NODE":347.2802,"ARG_OF_PERICENTER":95.0758,"MEAN_ANOMALY":265.0598,"EPHEMERIS_TYPE":0,"CLASSIFICATION_TYPE":"U","NORAD_CAT_ID":49291,"ELEMENT_SET_NO":999,"REV_AT_EPOCH":19836,"BSTAR":9.7618262e-5,"MEAN_MOTION_DOT":5.2e-7,"MEAN_MOTION_DDOT":0},{"OBJECT_NAME":"ONEWEB-0366","OBJECT_ID":"2021-090P","EPOCH":"2025-11-16T10:59:58.790976","MEAN_MOTION":13.14501533,"ECCENTRICITY":0.00017557,"INCLINATION":87.8981,"RA_OF_ASC_NODE":332.1026,"ARG_OF_PERICENTER":92.8631,"MEAN_ANOMALY":267.27,"EPHEMERIS_TYPE":0,"CLASSIFICATION_TYPE":"U","NORAD_CAT_ID":49292,"ELEMENT_SET_NO":999,"REV_AT_EPOCH":19961,"BSTAR":-0.00044709174,"MEAN_MOTION_DOT":-1.53e-6,"MEAN_MOTION_DDOT":0},{"OBJECT_NAME":"ONEWEB-0367","OBJECT_ID":"2021-090Q","EPOCH":"2025-11-16T10:30:41.791680","MEAN_MOTION":13.20773139,"ECCENTRICITY":0.00020174,"INCLINATION":87.9187,"RA_OF_ASC_NODE":316.8648,"ARG_OF_PERICENTER":87.3048,"MEAN_ANOMALY":272.8317,"EPHEMERIS_TYPE":0,"CLASSIFICATION_TYPE":"U","NORAD_CAT_ID":49293,"ELEMENT_SET_NO":999,"REV_AT_EPOCH":20174,"BSTAR":-3.4206982e-5,"MEAN_MOTION_DOT":-1.0e-8,"MEAN_MOTION_DDOT":0},{"OBJECT_NAME":"ONEWEB-0368","OBJECT_ID":"2021-090R","EPOCH":"2025-11-16T11:41:08.148768","MEAN_MOTION":13.20783754,"ECCENTRICITY":0.00021312,"INCLINATION":87.9179,"RA_OF_ASC_NODE":316.8869,"ARG_OF_PERICENTER":112.6873,"MEAN_ANOMALY":247.4486,"EPHEMERIS_TYPE":0,"CLASSIFICATION_TYPE":"U","NORAD_CAT_ID":49294,"ELEMENT_SET_NO":999,"REV_AT_EPOCH":20290,"BSTAR":0.0029047754,"MEAN_MOTION_DOT":1.194e-5,"MEAN_MOTION_DDOT":0},{"OBJECT_NAME":"ONEWEB-0369","OBJECT_ID":"2021-090S","EPOCH":"2025-11-16T12:22:50.553696","MEAN_MOTION":13.19726806,"ECCENTRICITY":0.00019211,"INCLINATION":87.9217,"RA_OF_ASC_NODE":347.2956,"ARG_OF_PERICENTER":96.102,"MEAN_ANOMALY":264.0332,"EPHEMERIS_TYPE":0,"CLASSIFICATION_TYPE":"U","NORAD_CAT_ID":49295,"ELEMENT_SET_NO":999,"REV_AT_EPOCH":19836,"BSTAR":0.00012262464,"MEAN_MOTION_DOT":6.2e-7,"MEAN_MOTION_DDOT":0},{"OBJECT_NAME":"ONEWEB-0370","OBJECT_ID":"2021-090T","EPOCH":"2025-11-16T18:00:41.631840","MEAN_MOTION":13.20773341,"ECCENTRICITY":0.0001889,"INCLINATION":87.9179,"RA_OF_ASC_NODE":316.8091,"ARG_OF_PERICENTER":79.4746,"MEAN_ANOMALY":280.66,"EPHEMERIS_TYPE":0,"CLASSIFICATION_TYPE":"U","NORAD_CAT_ID":49296,"ELEMENT_SET_NO":999,"REV_AT_EPOCH":20182,"BSTAR":4.0591e-5,"MEAN_MOTION_DOT":2.9e-7,"MEAN_MOTION_DDOT":0},{"OBJECT_NAME":"ONEWEB-0371","OBJECT_ID":"2021-090U","EPOCH":"2025-11-16T19:51:02.793888","MEAN_MOTION":13.19708805,"ECCENTRICITY":0.0002374,"INCLINATION":87.9205,"RA_OF_ASC_NODE":347.2236,"ARG_OF_PERICENTER":87.0785,"MEAN_ANOMALY":273.0619,"EPHEMERIS_TYPE":0,"CLASSIFICATION_TYPE":"U","NORAD_CAT_ID":49297,"ELEMENT_SET_NO":999,"REV_AT_EPOCH":19844,"BSTAR":-0.014199,"MEAN_MOTION_DOT":-5.667e-5,"MEAN_MOTION_DDOT":0},{"OBJECT_NAME":"ONEWEB-0372","OBJECT_ID":"2021-090V","EPOCH":"2025-11-16T10:28:14.503008","MEAN_MOTION":13.20772816,"ECCENTRICITY":0.00019296,"INCLINATION":87.9178,"RA_OF_ASC_NODE":316.8724,"ARG_OF_PERICENTER":90.9651,"MEAN_ANOMALY":269.1704,"EPHEMERIS_TYPE":0,"CLASSIFICATION_TYPE":"U","NORAD_CAT_ID":49298,"ELEMENT_SET_NO":999,"REV_AT_EPOCH":20175,"BSTAR":0.0001302043,"MEAN_MOTION_DOT":6.6e-7,"MEAN_MOTION_DDOT":0},{"OBJECT_NAME":"ONEWEB-0373","OBJECT_ID":"2021-090W","EPOCH":"2025-11-16T11:07:04.647072","MEAN_MOTION":13.20772397,"ECCENTRICITY":0.00017611,"INCLINATION":87.9177,"RA_OF_ASC_NODE":316.8807,"ARG_OF_PERICENTER":88.3317,"MEAN_ANOMALY":271.8018,"EPHEMERIS_TYPE":0,"CLASSIFICATION_TYPE":"U","NORAD_CAT_ID":49299,"ELEMENT_SET_NO":999,"REV_AT_EPOCH":20294,"BSTAR":9.301981e-5,"MEAN_MOTION_DOT":5.1e-7,"MEAN_MOTION_DDOT":0},{"OBJECT_NAME":"ONEWEB-0374","OBJECT_ID":"2021-090X","EPOCH":"2025-11-16T10:41:43.569888","MEAN_MOTION":13.14502542,"ECCENTRICITY":0.00015731,"INCLINATION":87.899,"RA_OF_ASC_NODE":332.082,"ARG_OF_PERICENTER":109.2537,"MEAN_ANOMALY":250.8763,"EPHEMERIS_TYPE":0,"CLASSIFICATION_TYPE":"U","NORAD_CAT_ID":49300,"ELEMENT_SET_NO":999,"REV_AT_EPOCH":19961,"BSTAR":-0.00047506164,"MEAN_MOTION_DOT":-1.63e-6,"MEAN_MOTION_DDOT":0}]
